GPS BIIR-2  (PRN 13)    
1 24876U 97035A   23250.58798868 -.00000044  00000+0  00000+0 0  9999
2 24876  55.5877 138.2177 0072707  52.3972 308.3210  2.00564098191626
GPS BIIR-4  (PRN 20)    
1 26360U 00025A   23250.71019476 -.00000044  00000+0  00000+0 0  9998
2 26360  54.4358  60.4638 0041504 199.4164 338.6228  2.00570579170941
GPS BIIR-5  (PRN 22)    
1 26407U 00040A   23250.73862167  .00000048  00000+0  00000+0 0  9995
2 26407  55.2024 255.4644 0155635 291.5093 109.7634  2.00570755169628
GPS BIIR-8  (PRN 16)    
1 27663U 03005A   23250.73870914  .00000049  00000+0  00000+0 0  9994
2 27663  55.2445 255.2745 0131962  44.6960 133.6072  2.00565856150984
GPS BIIR-9  (PRN 21)    
1 27704U 03010A   23250.75884453 -.00000115  00000+0  00000+0 0  9996
2 27704  55.1155   5.2330 0248779 318.8154  92.4233  2.00575100149786
GPS BIIR-11 (PRN 19)    
1 28190U 04009A   23250.35188206 -.00000075  00000+0  00000+0 0  9999
2 28190  55.6879 316.3497 0092876 138.8396 276.5612  2.00567256142611
GPS BIIR-13 (PRN 02)    
1 28474U 04045A   23250.75951499 -.00000114  00000+0  00000+0 0  9994
2 28474  55.4426   5.5555 0162414 282.6380 122.7141  2.00580136138101
GPS BIIRM-1 (PRN 17)    
1 28874U 05038A   23250.27569869 -.00000070  00000+0  00000+0 0  9995
2 28874  55.7392 313.8048 0139616 279.5475 102.4491  2.00575315131503
GPS BIIRM-2 (PRN 31)    
1 29486U 06042A   23250.90118500 -.00000009  00000+0  00000+0 0  9995
2 29486  54.6846 191.5144 0103203  32.1822 343.0635  2.00569566124073
GPS BIIRM-3 (PRN 12)    
1 29601U 06052A   23250.30155247  .00000049  00000+0  00000+0 0  9991
2 29601  55.2656 254.2513 0083294  79.4012 281.5572  2.00549765123071
GPS BIIRM-4 (PRN 15)    
1 32260U 07047A   23250.11756151 -.00000041  00000+0  00000+0 0  9994
2 32260  53.4658 122.0254 0151501  70.6951 291.0114  2.00551337116476
GPS BIIRM-5 (PRN 29)    
1 32384U 07062A   23250.43255104 -.00000071  00000+0  00000+0 0  9998
2 32384  55.8711 314.6201 0024873 150.5226 207.2480  2.00558968115172
GPS BIIRM-6 (PRN 07)    
1 32711U 08012A   23250.53014794 -.00000006  00000+0  00000+0 0  9995
2 32711  54.4519 190.3594 0177553 235.8694 122.4228  2.00557362113422
GPS BIIRM-8 (PRN 05)    
1 35752U 09043A   23250.51164435 -.00000035  00000+0  00000+0 0  9996
2 35752  55.4365  67.5902 0058355  69.0970 294.2465  2.00557810103035
GPS BIIF-1  (PRN 25)    
1 36585U 10022A   23250.59079701  .00000050  00000+0  00000+0 0  9995
2 36585  54.5648 249.4550 0109296  59.6695 117.3893  2.00562162 97256
GPS BIIF-3  (PRN 24)    
1 38833U 12053A   23250.20867399 -.00000010  00000+0  00000+0 0  9992
2 38833  53.5128 185.0755 0142161  51.9903 309.2751  2.00567240 79104
GPS BIIF-4  (PRN 27)    
1 39166U 13023A   23250.56954685 -.00000061  00000+0  00000+0 0  9990
2 39166  55.3541 309.9875 0114265  41.7120 319.2147  2.00564314 75559
GPS BIIF-5  (PRN 30)    
1 39533U 14008A   23250.56824532 -.00000007  00000+0  00000+0 0  9999
2 39533  53.5999 190.6189 0067220 215.7454 143.7900  2.00551882 69352
GPS BIIF-6  (PRN 06)    
1 39741U 14026A   23250.35120176 -.00000107  00000+0  00000+0 0  9991
2 39741  56.6969  10.8728 0029080 310.8179  48.9382  2.00556998 68205
GPS BIIF-7  (PRN 09)    
1 40105U 14045A   23250.43474540 -.00000041  00000+0  00000+0 0  9991
2 40105  54.8135 128.9482 0024968 113.2141 247.1180  2.00577962 66636
GPS BIIF-8  (PRN 03)    
1 40294U 14068A   23250.81209504 -.00000028  00000+0  00000+0 0  9998
2 40294  56.1807  70.3236 0049129  61.9896 298.5520  2.00572047 64887
GPS BIIF-9  (PRN 26)    
1 40534U 15013A   23250.44971550  .00000048  00000+0  00000+0 0  9993
2 40534  53.4635 246.1606 0080499  25.3174 335.0830  2.00554547 61912
GPS BIIF-10 (PRN 08)    
1 40730U 15033A   23251.11002013 -.00000055  00000+0  00000+0 0  9996
2 40730  54.8421 308.5780 0085299  13.9606 346.3367  2.00555119 59698
GPS BIIF-11 (PRN 10)    
1 41019U 15062A   23250.66399053 -.00000029  00000+0  00000+0 0  9992
2 41019  56.1641  70.1796 0089230 221.0182 138.3515  2.00562321 57502
GPS BIIF-12 (PRN 32)    
1 41328U 16007A   23250.25722507 -.00000041  00000+0  00000+0 0  9998
2 41328  55.0176 129.7343 0071397 233.8486 125.5567  2.00575353 55500
GPS BIII-1  (PRN 04)    
1 43873U 18109A   23250.85503149 -.00000042  00000+0  00000+0 0  9996
2 43873  55.1937 132.2260 0025648 191.0053 135.9849  2.00569054 34699
GPS BIII-2  (PRN 18)    
1 44506U 19056A   23250.79235139 -.00000109  00000+0  00000+0 0  9990
2 44506  55.8219  11.3036 0037030 185.3352 355.9622  2.00565783 29745
GPS BIII-3  (PRN 23)    
1 45854U 20041A   23250.62856571 -.00000032  00000+0  00000+0 0  9999
2 45854  55.8859  68.5926 0036170 186.1132 180.2875  2.00563597 23714
GPS BIII-4  (PRN 14)    
1 46826U 20078A   23250.39013466  .00000048  00000+0  00000+0 0  9997
2 46826  54.3109 251.9392 0036057 194.7331 334.9989  2.00562792 21179
GPS BIII-5  (PRN 11)    
1 48859U 21054A   23250.37048366 -.00000107  00000+0  00000+0 0  9992
2 48859  55.3394  13.1047 0012290 211.5024 126.4542  2.00573590 16417
GPS BIII-6  (PRN 28)    
1 55268U 23009A   23250.59272955 -.00000009  00000+0  00000+0 0  9994
2 55268  55.0886 188.2863 0004367  91.5646  88.0886  2.00555570  4918
